NORAD_CAT_ID,OBJECT_NAME,OBJECT_TYPE,EPOCH,MEAN_MOTION,ECCENTRICITY,INCLINATION,RA_OF_ASC_NODE,ARG_OF_PERICENTER,MEAN_ANOMALY,BSTAR,MEAN_MOTION_DOT,MEAN_MOTION_DDOT,TLE_LINE0,TLE_LINE1,TLE_LINE2,SEMIMAJOR_AXIS,PERIOD,APOGEE,PERIGEE,DECAYED
53852.0,STARLINK-4797,PAYLOAD,2023-10-03 03:37:29,15.08844103,0.0001583,53.2163,317.8554,83.8804,276.2369,0.00061896,9.578e-05,0.0,0 STARLINK-4797,1 53852U 22114AL  23276.15104057  .00009578  00000-0  61896-3 0  9998,2 53852  53.2163 317.8554 0001583  83.8804 276.2369 15.08844103 58367,6917.868,95.437,540.828,538.638,0.0
53852.0,STARLINK-4797,PAYLOAD,2023-10-03 09:59:02,15.08858031,0.0001634,53.2165,316.6663,81.1292,278.9885,0.00096329,0.00015084,0.0,0 STARLINK-4797,1 53852U 22114AL  23276.41599753  .00015084  00000-0  96329-3 0  9996,2 53852  53.2165 316.6663 0001634  81.1292 278.9885 15.08858031 58947,6917.825,95.436,540.821,538.56,0.0
53852.0,STARLINK-4797,PAYLOAD,2023-10-04 09:49:49,15.08856665,0.0001853,53.2162,312.2057,79.9915,280.1286,0.00075292,0.0001172,0.0,0 STARLINK-4797,1 53852U 22114AL  23277.40959744  .00011720  00000-0  75292-3 0  9995,2 53852  53.2162 312.2057 0001853  79.9915 280.1286 15.08856665 58551,6917.829,95.437,540.976,538.413,0.0
53852.0,STARLINK-4797,PAYLOAD,2023-10-04 11:25:12,15.08860356,0.0001827,53.216,311.9081,77.3149,282.8047,0.00092687,0.00014502,0.0,0 STARLINK-4797,1 53852U 22114AL  23277.47583676  .00014502  00000-0  92687-3 0  9997,2 53852  53.2160 311.9081 0001827  77.3149 282.8047 15.08860356 59102,6917.818,95.436,540.947,538.419,0.0
53852.0,STARLINK-4797,PAYLOAD,2023-10-04 19:22:08,15.08848447,0.0002129,53.216,310.4213,77.1202,283.0027,0.00080692,0.0001258,0.0,0 STARLINK-4797,1 53852U 22114AL  23277.80703793  .00012580  00000-0  80692-3 0  9995,2 53852  53.2160 310.4213 0002129  77.1202 283.0027 15.08848447 59150,6917.855,95.437,541.192,538.247,0.0
53852.0,STARLINK-4797,PAYLOAD,2023-10-05 03:19:03,15.08839161,0.000173,53.216,308.935,84.5489,275.57,0.00072701,0.00011301,0.0,0 STARLINK-4797,1 53852U 22114AL  23278.13824057  .00011301  00000-0  72701-3 0  9991,2 53852  53.2160 308.9350 0001730  84.5489 275.5700 15.08839161 58662,6917.883,95.438,540.945,538.551,0.0
53852.0,STARLINK-4797,PAYLOAD,2023-10-05 11:15:59,15.08850373,0.0001783,53.2158,307.4481,79.9573,280.162,0.0018782,0.00029739,0.0,0 STARLINK-4797,1 53852U 22114AL  23278.46944036  .00029739  00000-0  18782-2 0  9999,2 53852  53.2158 307.4481 0001783  79.9573 280.1620 15.08850373 59255,6917.849,95.437,540.947,538.48,0.0
53852.0,STARLINK-4797,PAYLOAD,2023-10-06 01:34:27,15.08846776,0.0001901,53.2155,304.7699,103.8079,256.3124,0.00094491,0.00014785,0.0,0 STARLINK-4797,1 53852U 22114AL  23279.06560081  .00014785  00000-0  94491-3 0  9997,2 53852  53.2155 304.7699 0001901 103.8079 256.3124 15.08846776 58809,6917.86,95.437,541.04,538.41,0.0
53852.0,STARLINK-4797,PAYLOAD,2023-10-06 07:56:00,15.08844505,0.0001986,53.2163,303.5817,93.8101,266.3118,0.00041174,6.272e-05,0.0,0 STARLINK-4797,1 53852U 22114AL  23279.33056077  .00006272  00000-0  41174-3 0  9994,2 53852  53.2163 303.5817 0001986  93.8101 266.3118 15.08844505 58840,6917.867,95.437,541.106,538.358,0.0
53852.0,STARLINK-4797,PAYLOAD,2023-10-06 19:03:42,15.08843489,0.0001873,53.2158,301.5007,90.2667,269.854,0.00025449,3.765e-05,0.0,0 STARLINK-4797,1 53852U 22114AL  23279.79424108  .00003765  00000-0  25449-3 0  9999,2 53852  53.2158 301.5007 0001873  90.2667 269.8540 15.08843489 59451,6917.87,95.437,541.03,538.439,0.0
53852.0,STARLINK-4797,PAYLOAD,2023-10-07 01:25:15,15.08841377,0.0001914,53.2165,300.3115,90.7828,269.3384,0.00018901,2.721e-05,0.0,0 STARLINK-4797,1 53852U 22114AL  23280.05920226  .00002721  00000-0  18901-3 0  9998,2 53852  53.2165 300.3115 0001914  90.7828 269.3384 15.08841377 58955,6917.876,95.437,541.065,538.417,0.0
53852.0,STARLINK-4797,PAYLOAD,2023-10-07 10:57:33,15.08846318,0.0001993,53.2155,298.5258,92.9324,267.1896,0.00021537,3.142e-05,0.0,0 STARLINK-4797,1 53852U 22114AL  23280.45664031  .00003142  00000-0  21537-3 0  9998,2 53852  53.2155 298.5258 0001993  92.9324 267.1896 15.08846318 59553,6917.861,95.437,541.105,538.347,0.0
53852.0,STARLINK-4797,PAYLOAD,2023-10-08 01:16:02,15.088393,0.0002404,53.2141,295.8482,98.5426,261.5839,-5.7013e-05,-1.196e-05,0.0,0 STARLINK-4797,1 53852U 22114AL  23281.05280420 -.00001196  00000-0 -57013-4 0  9999,2 53852  53.2141 295.8482 0002404  98.5426 261.5839 15.08839300 59109,6917.883,95.438,541.411,538.084,0.0
53852.0,STARLINK-4797,PAYLOAD,2023-10-08 10:48:20,15.08844838,0.0001869,53.217,294.0654,90.8409,269.2797,0.00014178,1.969e-05,0.0,0 STARLINK-4797,1 53852U 22114AL  23281.45024285  .00001969  00000-0  14178-3 0  9998,2 53852  53.2170 294.0654 0001869  90.8409 269.2797 15.08844838 59709,6917.866,95.437,541.024,538.438,0.0
53852.0,STARLINK-4797,PAYLOAD,2023-10-09 07:28:21,15.08849587,0.000183,53.215,290.199,91.6535,268.4667,0.00024437,3.604e-05,0.0,0 STARLINK-4797,1 53852U 22114AL  23282.31136063  .00003604  00000-0  24437-3 0  9999,2 53852  53.2150 290.1990 0001830  91.6535 268.4667 15.08849587 59291,6917.851,95.437,540.982,538.45,0.0
53852.0,STARLINK-4797,PAYLOAD,2023-10-10 00:57:36,15.08836551,0.0001349,53.217,286.9307,79.758,280.3564,9.0055e-05,1.145e-05,0.0,0 STARLINK-4797,1 53852U 22114AL  23283.04000820  .00001145  00000-0  90055-4 0  9999,2 53852  53.2170 286.9307 0001349  79.7580 280.3564 15.08836551 59409,6917.891,95.438,540.689,538.823,0.0
53852.0,STARLINK-4797,PAYLOAD,2023-10-10 12:05:17,15.08854107,0.0001751,53.2169,284.8474,98.3384,261.7807,0.00027826,4.145e-05,0.0,0 STARLINK-4797,1 53852U 22114AL  23283.50367826  .00004145  00000-0  27826-3 0  9990,2 53852  53.2169 284.8474 0001751  98.3384 261.7807 15.08854107 59472,6917.837,95.437,540.914,538.491,0.0
53852.0,STARLINK-4797,PAYLOAD,2023-10-11 00:48:24,15.08825943,0.0001543,53.2171,282.471,88.8426,271.2743,-0.00026217,-4.456e-05,0.0,0 STARLINK-4797,1 53852U 22114AL  23284.03361151 -.00004456  00000-0 -26217-3 0  9994,2 53852  53.2171 282.4710 0001543  88.8426 271.2743 15.08825943 59552,6917.923,95.438,540.856,538.721,0.0
53852.0,STARLINK-4797,PAYLOAD,2023-10-11 10:20:43,15.0882966,0.0001665,53.2179,280.685,88.4366,271.6817,-0.0001324,-2.394e-05,0.0,0 STARLINK-4797,1 53852U 22114AL  23284.43105441 -.00002394  00000-0 -13240-3 0  9997,2 53852  53.2179 280.6850 0001665  88.4366 271.6817 15.08829660 60153,6917.912,95.438,540.929,538.625,0.0
53852.0,STARLINK-4797,PAYLOAD,2023-10-12 03:49:58,15.08827217,0.0001913,53.218,277.4137,95.4747,264.6463,-1.9956e-05,-6.06e-06,0.0,0 STARLINK-4797,1 53852U 22114AL  23285.15970318 -.00000606  00000-0 -19956-4 0  9995,2 53852  53.2180 277.4137 0001913  95.4747 264.6463 15.08827217 59720,6917.919,95.438,541.108,538.461,0.0
53852.0,STARLINK-4797,PAYLOAD,2023-10-12 05:25:21,15.08828583,0.0001947,53.2177,277.1164,97.9915,262.1299,9.2447e-06,-1.41e-06,0.0,0 STARLINK-4797,1 53852U 22114AL  23285.22594315 -.00000141  00000-0  92447-5 0  9992,2 53852  53.2177 277.1164 0001947  97.9915 262.1299 15.08828583 60273,6917.915,95.438,541.127,538.433,0.0
53852.0,STARLINK-4797,PAYLOAD,2023-10-13 03:40:44,15.08852714,0.0001707,53.2165,272.9513,92.5335,267.5852,0.00049796,7.649e-05,0.0,0 STARLINK-4797,1 53852U 22114AL  23286.15329542  .00007649  00000-0  49796-3 0  9999,2 53852  53.2165 272.9513 0001707  92.5335 267.5852 15.08852714 59873,6917.842,95.437,540.887,538.526,0.0
53852.0,STARLINK-4797,PAYLOAD,2023-10-13 08:26:53,15.08867008,0.0001736,53.2156,272.0592,94.2196,265.8995,0.00081807,0.00012765,0.0,0 STARLINK-4797,1 53852U 22114AL  23286.35201238  .00012765  00000-0  81807-3 0  9996,2 53852  53.2156 272.0592 0001736  94.2196 265.8995 15.08867008 60443,6917.798,95.436,540.864,538.462,0.0
53852.0,STARLINK-4797,PAYLOAD,2023-10-13 16:23:49,15.08855102,0.0001976,53.2157,270.5725,87.4961,272.6257,0.00035741,5.407e-05,0.0,0 STARLINK-4797,1 53852U 22114AL  23286.68321530  .00005407  00000-0  35741-3 0  9991,2 53852  53.2157 270.5725 0001976  87.4961 272.6257 15.08855102 59958,6917.834,95.437,541.066,538.332,0.0
53852.0,STARLINK-4797,PAYLOAD,2023-10-14 05:06:54,15.0885808,0.0001711,53.2148,268.1919,91.9727,268.1461,0.00040364,6.145e-05,0.0,0 STARLINK-4797,1 53852U 22114AL  23287.21312869  .00006145  00000-0  40364-3 0  9993,2 53852  53.2148 268.1919 0001711  91.9727 268.1461 15.08858080 60578,6917.825,95.436,540.874,538.506,0.0
53852.0,STARLINK-4797,PAYLOAD,2023-10-14 22:36:09,15.08848074,0.0002638,53.215,264.9227,93.569,266.5604,0.00071541,0.00011119,0.0,0 STARLINK-4797,1 53852U 22114AL  23287.94177582  .00011119  00000-0  71541-3 0  9992,2 53852  53.2150 264.9227 0002638  93.5690 266.5604 15.08848074 60688,6917.856,95.437,541.546,537.896,0.0
53852.0,STARLINK-4797,PAYLOAD,2023-10-15 04:57:41,15.08838692,0.000149,53.2156,263.7337,98.9063,261.2098,0.00017694,2.529e-05,0.0,0 STARLINK-4797,1 53852U 22114AL  23288.20673463  .00002529  00000-0  17694-3 0  9995,2 53852  53.2156 263.7337 0001490  98.9063 261.2098 15.08838692 60180,6917.884,95.438,540.78,538.719,0.0
53852.0,STARLINK-4797,PAYLOAD,2023-10-15 16:05:24,15.08835436,0.0001529,53.2165,261.6523,99.0791,261.0375,0.00097536,0.00015267,0.0,0 STARLINK-4797,1 53852U 22114AL  23288.67042091  .00015267  00000-0  97536-3 0  9999,2 53852  53.2165 261.6523 0001529  99.0791 261.0375 15.08835436 60793,6917.894,95.438,540.817,538.702,0.0
53852.0,STARLINK-4797,PAYLOAD,2023-10-16 07:59:15,15.08864302,0.0001478,53.2162,258.6785,99.0101,261.1058,0.0012477,0.00019638,0.0,0 STARLINK-4797,1 53852U 22114AL  23289.33281521  .00019638  00000-0  12477-2 0  9992,2 53852  53.2162 258.6785 0001478  99.0101 261.1058 15.08864302 60359,6917.806,95.436,540.694,538.649,0.0
53852.0,STARLINK-4797,PAYLOAD,2023-10-16 22:17:43,15.08859255,0.0002242,53.2163,256.0,87.9642,272.1607,0.00049515,7.605e-05,0.0,0 STARLINK-4797,1 53852U 22114AL  23289.92897544  .00007605  00000-0  49515-3 0  9990,2 53852  53.2163 256.0000 0002242  87.9642 272.1607 15.08859255 60980,6917.822,95.436,541.238,538.136,0.0
